From: horizons@ssd.jpl.nasa.gov (Horizons Ephemeris System)
Subject: [Horizons] SMALL BODY #C(500@10)_T(Nevski (C/2013 V3)) (1/1)
Date: February 16, 2021 at 11:01:43 PM PST

Automated mail xmit by MAIL_REQUEST, PID= 24097 Tue Feb 16 23:01:43 2021
++++++++++++++++++++++++++++++++ (part 1 of 1)  +++++++++++++++++++++++++++++++


*******************************************************************************
Ephemeris / MAIL_REQUEST Tue Feb 16 23:01:43 2021 Pasadena, USA  / Horizons
*******************************************************************************
Target body name: Nevski (C/2013 V3)              {source: JPL#31}
Center body name: Sun (10)                        {source: DE431}
Center-site name: BODY CENTER
*******************************************************************************
Start time      : A.D. 2013-Apr-29 00:00:00.0000 TDB
Stop  time      : A.D. 2014-Apr-29 00:00:00.0000 TDB
Step-size       : 10080 minutes
*******************************************************************************
Center geodetic : 0.00000000,0.00000000,0.0000000 {E-lon(deg),Lat(deg),Alt(km)}
Center cylindric: 0.00000000,0.00000000,0.0000000 {E-lon(deg),Dxy(km),Dz(km)}
Center radii    : 696000.0 x 696000.0 x 696000.0 k{Equator, meridian, pole}    
Small perturbers: Yes                             {source: SB431-N16}
Output units    : AU-D
Output type     : GEOMETRIC cartesian states
Output format   : 6 (LT, range, and range-rate)
Reference frame : Ecliptic of J2000.0
*******************************************************************************
Initial IAU76/J2000 heliocentric ecliptic osculating elements (au, days, deg.):
 EPOCH=  2456629.5 ! 2013-Dec-03.0000000 (TDB)    RMSW= n.a.                  
  EC= .8909685922028165   QR= 1.386692685403626   TP= 2456595.4058257584      
  OM= 100.9181160202745   W= 339.6433006262093    IN= 32.13447939562106       
 Equivalent ICRF heliocentric equatorial cartesian coordinates (au, au/d):
  X=-4.220175135953236E-01  Y= 1.245369132198301E+00  Z= 6.423329144276033E-01
 VX=-1.652721873713522E-02 VY=-5.155256370474021E-03 VZ= 9.023088112088525E-03
Comet physical (GM= km^3/s^2; RAD= km):                                        
  GM= n.a.                RAD= n.a.                                           
  M1=  15.2     M2=  n.a.     k1=  7.     k2= n.a.     PHCOF= n.a.            
*******************************************************************************
           JDTDB,            Calendar Date (TDB),                     LT,                     RG,                     RR,
**************************************************************************************************************************
$$SOE
2456411.500000000, A.D. 2013-Apr-29 00:00:00.0000,  1.557387537833651E-02,  2.696532931696472E+00, -9.459047944325165E-03,
2456418.500000000, A.D. 2013-May-06 00:00:00.0000,  1.519134455948514E-02,  2.630299773579873E+00, -9.463557259432412E-03,
2456425.500000000, A.D. 2013-May-13 00:00:00.0000,  1.480877885959723E-02,  2.564060575999018E+00, -9.460584184944328E-03,
2456432.500000000, A.D. 2013-May-20 00:00:00.0000,  1.442650491386297E-02,  2.497871894083928E+00, -9.448905165714968E-03,
2456439.500000000, A.D. 2013-May-27 00:00:00.0000,  1.404490259513080E-02,  2.431799500779407E+00, -9.427105766160210E-03,
2456446.500000000, A.D. 2013-Jun-03 00:00:00.0000,  1.366441330975749E-02,  2.365919823226962E+00, -9.393550749362798E-03,
2456453.500000000, A.D. 2013-Jun-10 00:00:00.0000,  1.328554962684983E-02,  2.300321610016305E+00, -9.346348974475055E-03,
2456460.500000000, A.D. 2013-Jun-17 00:00:00.0000,  1.290890635446092E-02,  2.235107848969302E+00, -9.283317014585043E-03,
2456467.500000000, A.D. 2013-Jun-24 00:00:00.0000,  1.253517312709083E-02,  2.170397946598150E+00, -9.201940639973243E-03,
2456474.500000000, A.D. 2013-Jul-01 00:00:00.0000,  1.216514858657913E-02,  2.106330183450797E+00, -9.099334832419195E-03,
2456481.500000000, A.D. 2013-Jul-08 00:00:00.0000,  1.179975616658507E-02,  2.043064447108975E+00, -8.972205000654467E-03,
2456488.500000000, A.D. 2013-Jul-15 00:00:00.0000,  1.144006135370546E-02,  1.980785220858106E+00, -8.816813559625629E-03,
2456495.500000000, A.D. 2013-Jul-22 00:00:00.0000,  1.108729009056977E-02,  1.919704770084448E+00, -8.628958109158960E-03,
2456502.500000000, A.D. 2013-Jul-29 00:00:00.0000,  1.074284767979058E-02,  1.860066415392654E+00, -8.403970255279633E-03,
2456509.500000000, A.D. 2013-Aug-05 00:00:00.0000,  1.040833711448534E-02,  1.802147706437227E+00, -8.136747545260734E-03,
2456516.500000000, A.D. 2013-Aug-12 00:00:00.0000,  1.008557517856006E-02,  1.746263209600218E+00, -7.821835009070228E-03,
2456523.500000000, A.D. 2013-Aug-19 00:00:00.0000,  9.776603888407561E-03,  1.692766489059877E+00, -7.453578197263490E-03,
2456530.500000000, A.D. 2013-Aug-26 00:00:00.0000,  9.483693889744446E-03,  1.642050694934740E+00, -7.026371657644030E-03,
2456537.500000000, A.D. 2013-Sep-02 00:00:00.0000,  9.209335572677243E-03,  1.594547024905016E+00, -6.535020755365622E-03,
2456544.500000000, A.D. 2013-Sep-09 00:00:00.0000,  8.956212998704112E-03,  1.550720209812880E+00, -5.975232006612160E-03,
2456551.500000000, A.D. 2013-Sep-16 00:00:00.0000,  8.727155395247913E-03,  1.511060115201215E+00, -5.344229387989178E-03,
2456558.500000000, A.D. 2013-Sep-23 00:00:00.0000,  8.525061752564546E-03,  1.476068685673004E+00, -4.641459066231446E-03,
2456565.500000000, A.D. 2013-Sep-30 00:00:00.0000,  8.352796417293255E-03,  1.446241867474952E+00, -3.869302100243260E-03,
2456572.500000000, A.D. 2013-Oct-07 00:00:00.0000,  8.213057778584661E-03,  1.422046872205354E+00, -3.033668186912541E-03,
2456579.500000000, A.D. 2013-Oct-14 00:00:00.0000,  8.108228021747326E-03,  1.403896162464423E+00, -2.144310793833546E-03,
2456586.500000000, A.D. 2013-Oct-21 00:00:00.0000,  8.040218444224437E-03,  1.392120669145892E+00, -1.214709021102435E-03,
2456593.500000000, A.D. 2013-Oct-28 00:00:00.0000,  8.010330046582413E-03,  1.386945653514942E+00, -2.614227692967425E-04,
2456600.500000000, A.D. 2013-Nov-04 00:00:00.0000,  8.019150705907250E-03,  1.388472903333686E+00,  6.970570617577087E-04,
2456607.500000000, A.D. 2013-Nov-11 00:00:00.0000,  8.066506587874660E-03,  1.396672320121898E+00,  1.641804900268831E-03,
2456614.500000000, A.D. 2013-Nov-18 00:00:00.0000,  8.151476689440747E-03,  1.411384437145851E+00,  2.555037466003776E-03,
2456621.500000000, A.D. 2013-Nov-25 00:00:00.0000,  8.272467758534749E-03,  1.432333391360995E+00,  3.421478293846570E-03,
2456628.500000000, A.D. 2013-Dec-02 00:00:00.0000,  8.427336181820018E-03,  1.459148027623562E+00,  4.229289617886440E-03,
2456635.500000000, A.D. 2013-Dec-09 00:00:00.0000,  8.613536938315753E-03,  1.491387689210682E+00,  4.970474377628538E-03,
2456642.500000000, A.D. 2013-Dec-16 00:00:00.0000,  8.828278458941250E-03,  1.528569030919291E+00,  5.640781696554597E-03,
2456649.500000000, A.D. 2013-Dec-23 00:00:00.0000,  9.068665706041340E-03,  1.570190792518009E+00,  6.239244861529762E-03,
2456656.500000000, A.D. 2013-Dec-30 00:00:00.0000,  9.331819901345217E-03,  1.615754529000583E+00,  6.767515299320285E-03,
2456663.500000000, A.D. 2014-Jan-06 00:00:00.0000,  9.614969760761267E-03,  1.664780407400938E+00,  7.229140683029859E-03,
2456670.500000000, A.D. 2014-Jan-13 00:00:00.0000,  9.915514284465885E-03,  1.716818078560029E+00,  7.628893330115879E-03,
2456677.500000000, A.D. 2014-Jan-20 00:00:00.0000,  1.023106047971893E-02,  1.771453208628871E+00,  7.972207969002162E-03,
2456684.500000000, A.D. 2014-Jan-27 00:00:00.0000,  1.055944095792798E-02,  1.828310525905769E+00,  8.264749202922646E-03,
2456691.500000000, A.D. 2014-Feb-03 00:00:00.0000,  1.089871661196675E-02,  1.887054284399625E+00,  8.512103811794920E-03,
2456698.500000000, A.D. 2014-Feb-10 00:00:00.0000,  1.124716910121927E-02,  1.947386962655676E+00,  8.719580789170418E-03,
2456705.500000000, A.D. 2014-Feb-17 00:00:00.0000,  1.160328702736645E-02,  2.009046870167142E+00,  8.892094483172660E-03,
2456712.500000000, A.D. 2014-Feb-24 00:00:00.0000,  1.196574861782334E-02,  2.071805149105322E+00,  9.034105413153746E-03,
2456719.500000000, A.D. 2014-Mar-03 00:00:00.0000,  1.233340293092969E-02,  2.135462520099221E+00,  9.149604248670399E-03,
2456726.500000000, A.D. 2014-Mar-10 00:00:00.0000,  1.270525104438974E-02,  2.199846025114871E+00,  9.242124412635134E-03,
2456733.500000000, A.D. 2014-Mar-17 00:00:00.0000,  1.308042810515216E-02,  2.264805919488381E+00,  9.314770463920582E-03,
2456740.500000000, A.D. 2014-Mar-24 00:00:00.0000,  1.345818671163233E-02,  2.330212794646922E+00,  9.370254638070955E-03,
2456747.500000000, A.D. 2014-Mar-31 00:00:00.0000,  1.383788185247836E-02,  2.395954970336903E+00,  9.410936647303794E-03,
2456754.500000000, A.D. 2014-Apr-07 00:00:00.0000,  1.421895746380442E-02,  2.461936167081065E+00,  9.438863527045274E-03,
2456761.500000000, A.D. 2014-Apr-14 00:00:00.0000,  1.460093456347569E-02,  2.528073451693618E+00,  9.455807558414332E-03,
2456768.500000000, A.D. 2014-Apr-21 00:00:00.0000,  1.498340085926717E-02,  2.594295437988711E+00,  9.463301112072348E-03,
2456775.500000000, A.D. 2014-Apr-28 00:00:00.0000,  1.536600169151484E-02,  2.660540718549093E+00,  9.462667757109411E-03,
$$EOE
**************************************************************************************************************************
Coordinate system description:

 Ecliptic at the standard reference epoch

   Reference epoch: J2000.0
   X-Y plane: adopted Earth orbital plane at the reference epoch
              Note: obliquity of 84381.448 arcseconds (IAU76) wrt ICRF equator
   X-axis   : ICRF
   Z-axis   : perpendicular to the X-Y plane in the directional (+ or -) sense
              of Earth's north pole at the reference epoch.

 Symbol meaning [1 au= 149597870.700 km, 1 day= 86400.0 s]:

   JDTDB    Julian Day Number, Barycentric Dynamical Time
     LT     One-way down-leg Newtonian light-time (day)
     RG     Range; distance from coordinate center (au)
     RR     Range-rate; radial velocity wrt coord. center (au/day)

Geometric states/elements have no aberrations applied.


Computations by ...
    Solar System Dynamics Group, Horizons On-Line Ephemeris System
    4800 Oak Grove Drive, Jet Propulsion Laboratory
    Pasadena, CA  91109   USA
    Information  : https://ssd.jpl.nasa.gov/
    Documentation: https://ssd.jpl.nasa.gov/?horizons_doc
    Connect      : https://ssd.jpl.nasa.gov/?horizons (browser)
                   telnet ssd.jpl.nasa.gov 6775       (command-line)
                   e-mail command interface available
                   Script and CGI interfaces available
    Author       : Jon.D.Giorgini@jpl.nasa.gov
*******************************************************************************
